NORAD_CAT_ID,OBJECT_NAME,OBJECT_TYPE,EPOCH,MEAN_MOTION,ECCENTRICITY,INCLINATION,RA_OF_ASC_NODE,ARG_OF_PERICENTER,MEAN_ANOMALY,BSTAR,MEAN_MOTION_DOT,MEAN_MOTION_DDOT,TLE_LINE0,TLE_LINE1,TLE_LINE2,SEMIMAJOR_AXIS,PERIOD,APOGEE,PERIGEE,DECAYED
51956.0,STARLINK-3700,PAYLOAD,2023-10-26 04:21:29,15.08031491,0.0001634,53.0544,312.7916,92.202,267.9157,5.9712e-05,6.44e-06,0.0,0 STARLINK-3700,1 51956U 22025A   23299.18159418  .00000644  00000-0  59712-4 0  9991,2 51956  53.0544 312.7916 0001634  92.2020 267.9157 15.08031491 91602,6920.353,95.489,543.349,541.087,0.0
51956.0,STARLINK-3700,PAYLOAD,2023-10-26 10:43:14,15.08032617,0.0001599,53.0546,311.5951,105.6577,254.4589,2.6232e-05,1.22e-06,0.0,0 STARLINK-3700,1 51956U 22025A   23299.44669220  .00000122  00000-0  26232-4 0  9999,2 51956  53.0546 311.5951 0001599 105.6577 254.4589 15.08032617 90550,6920.349,95.489,543.321,541.108,0.0
51956.0,STARLINK-3700,PAYLOAD,2023-10-27 04:13:01,15.08044465,0.0001564,53.0535,308.3159,102.112,258.0045,0.00024635,3.553e-05,0.0,0 STARLINK-3700,1 51956U 22025A   23300.17571031  .00003553  00000-0  24635-3 0  9999,2 51956  53.0535 308.3159 0001564 102.1120 258.0045 15.08044465 91754,6920.313,95.488,543.26,541.096,0.0
51956.0,STARLINK-3700,PAYLOAD,2023-10-27 07:23:53,15.08050391,0.000157,53.0538,307.7195,97.1142,263.0027,0.00043903,6.559e-05,0.0,0 STARLINK-3700,1 51956U 22025A   23300.30825903  .00006559  00000-0  43903-3 0  9992,2 51956  53.0538 307.7195 0001570  97.1142 263.0027 15.08050391 90686,6920.295,95.488,543.246,541.073,0.0
51956.0,STARLINK-3700,PAYLOAD,2023-10-28 00:53:41,15.08033906,0.0001487,53.0533,304.438,92.9335,267.1824,0.00018469,2.591e-05,0.0,0 STARLINK-3700,1 51956U 22025A   23301.03729006  .00002591  00000-0  18469-3 0  9991,2 51956  53.0533 304.4380 0001487  92.9335 267.1824 15.08033906 91881,6920.345,95.489,543.239,541.181,0.0
51956.0,STARLINK-3700,PAYLOAD,2023-10-28 07:15:26,15.08029277,0.0001512,53.0539,303.247,88.0082,272.1081,-3.3336e-05,-8.05e-06,0.0,0 STARLINK-3700,1 51956U 22025A   23301.30239094 -.00000805  00000-0 -33336-4 0  9993,2 51956  53.0539 303.2470 0001512  88.0082 272.1081 15.08029277 90839,6920.36,95.489,543.271,541.178,0.0
51956.0,STARLINK-3700,PAYLOAD,2023-10-28 16:48:03,15.08029366,0.0001454,53.0536,301.4562,83.7024,276.4131,6.9336e-05,7.94e-06,0.0,0 STARLINK-3700,1 51956U 22025A   23301.70004231  .00000794  00000-0  69336-4 0  9994,2 51956  53.0536 301.4562 0001454  83.7024 276.4131 15.08029366 91980,6920.359,95.489,543.231,541.218,0.0
51956.0,STARLINK-3700,PAYLOAD,2023-10-29 08:42:24,15.08050783,0.0001531,53.0541,298.4739,87.5907,272.5258,0.00082886,0.00012649,0.0,0 STARLINK-3700,1 51956U 22025A   23302.36278704  .00012649  00000-0  82886-3 0  9991,2 51956  53.0541 298.4739 0001531  87.5907 272.5258 15.08050783 92081,6920.294,95.488,543.218,541.099,0.0
51956.0,STARLINK-3700,PAYLOAD,2023-10-29 16:39:36,15.08030865,0.0002115,53.0545,296.9807,90.4738,269.6494,0.00046737,6.998e-05,0.0,0 STARLINK-3700,1 51956U 22025A   23302.69416812  .00006998  00000-0  46737-3 0  9996,2 51956  53.0545 296.9807 0002115  90.4738 269.6494 15.08030865 92132,6920.355,95.489,543.683,540.756,0.0
51956.0,STARLINK-3700,PAYLOAD,2023-10-30 16:31:08,15.08031875,0.0001826,53.0549,292.5058,88.3364,271.7835,0.00019621,2.77e-05,0.0,0 STARLINK-3700,1 51956U 22025A   23303.68829253  .00002770  00000-0  19621-3 0  9999,2 51956  53.0549 292.5058 0001826  88.3364 271.7835 15.08031875 92286,6920.352,95.489,543.48,540.953,0.0
51956.0,STARLINK-3700,PAYLOAD,2023-10-31 03:39:12,15.08017635,0.0002027,53.0553,290.4225,90.1997,269.9225,-4.6292e-05,-1.007e-05,0.0,0 STARLINK-3700,1 51956U 22025A   23304.15222489 -.00001007  00000-0 -46292-4 0  9999,2 51956  53.0553 290.4225 0002027  90.1997 269.9225 15.08017635 92359,6920.395,95.49,543.663,540.857,0.0
51956.0,STARLINK-3700,PAYLOAD,2023-10-31 08:25:30,15.08027906,0.0001747,53.0547,289.5246,90.5946,269.5244,5.1306e-05,5.13e-06,0.0,0 STARLINK-3700,1 51956U 22025A   23304.35104673  .00000513  00000-0  51306-4 0  9996,2 51956  53.0547 289.5246 0001747  90.5946 269.5244 15.08027906 91291,6920.364,95.489,543.438,541.02,0.0
51956.0,STARLINK-3700,PAYLOAD,2023-10-31 16:22:41,15.08029474,0.0001743,53.0546,288.033,91.1389,268.98,0.00016574,2.295e-05,0.0,0 STARLINK-3700,1 51956U 22025A   23304.68242308  .00002295  00000-0  16574-3 0  9996,2 51956  53.0546 288.0330 0001743  91.1389 268.9800 15.08029474 92432,6920.359,95.489,543.43,541.018,0.0
51956.0,STARLINK-3700,PAYLOAD,2023-11-01 08:17:02,15.08045108,0.0001567,53.0542,285.0473,98.3921,261.7246,0.00047825,7.17e-05,0.0,0 STARLINK-3700,1 51956U 22025A   23305.34516730  .00007170  00000-0  47825-3 0  9993,2 51956  53.0542 285.0473 0001567  98.3921 261.7246 15.08045108 92536,6920.311,95.488,543.261,541.092,0.0
51956.0,STARLINK-3700,PAYLOAD,2023-11-01 16:14:13,15.08030145,0.0001981,53.057,283.5575,85.8501,274.2715,0.00014136,1.915e-05,0.0,0 STARLINK-3700,1 51956U 22025A   23305.67654874  .00001915  00000-0  14136-3 0  9991,2 51956  53.0570 283.5575 0001981  85.8501 274.2715 15.08030145 92588,6920.357,95.489,543.593,540.851,0.0
51956.0,STARLINK-3700,PAYLOAD,2023-11-01 22:35:58,15.08030995,0.000197,53.0556,282.365,86.5464,273.5751,0.00021858,3.119e-05,0.0,0 STARLINK-3700,1 51956U 22025A   23305.94164972  .00003119  00000-0  21858-3 0  9993,2 51956  53.0556 282.3650 0001970  86.5464 273.5751 15.08030995 91536,6920.354,95.489,543.583,540.856,0.0
51956.0,STARLINK-3700,PAYLOAD,2023-11-02 08:08:34,15.08042034,0.0001767,53.0551,280.5744,94.1241,265.9951,0.00033737,4.972e-05,0.0,0 STARLINK-3700,1 51956U 22025A   23306.33929371  .00004972  00000-0  33737-3 0  9996,2 51956  53.0551 280.5744 0001767  94.1241 265.9951 15.08042034 92688,6920.321,95.488,543.408,540.963,0.0
51956.0,STARLINK-3700,PAYLOAD,2023-11-03 04:49:14,15.08039511,0.0001903,53.0557,276.6942,101.4681,258.6522,0.00014326,1.945e-05,0.0,0 STARLINK-3700,1 51956U 22025A   23307.20086598  .00001945  00000-0  14326-3 0  9998,2 51956  53.0557 276.6942 0001903 101.4681 258.6522 15.08039511 92816,6920.328,95.488,543.51,540.876,0.0
51956.0,STARLINK-3700,PAYLOAD,2023-11-03 08:00:07,15.08041248,0.0001842,53.0554,276.0984,100.0815,260.0382,0.00018206,2.55e-05,0.0,0 STARLINK-3700,1 51956U 22025A   23307.33341494  .00002550  00000-0  18206-3 0  9995,2 51956  53.0554 276.0984 0001842 100.0815 260.0382 15.08041248 91741,6920.323,95.488,543.463,540.913,0.0
51956.0,STARLINK-3700,PAYLOAD,2023-11-04 04:40:47,15.08039776,0.0001465,53.055,272.2224,90.0523,270.0635,0.00021004,2.986e-05,0.0,0 STARLINK-3700,1 51956U 22025A   23308.19499021  .00002986  00000-0  21004-3 0  9993,2 51956  53.0550 272.2224 0001465  90.0523 270.0635 15.08039776 92967,6920.327,95.488,543.206,541.179,0.0
51956.0,STARLINK-3700,PAYLOAD,2023-11-04 14:13:24,15.08034223,0.0001405,53.0552,270.4327,89.9103,270.2048,0.00010258,1.312e-05,0.0,0 STARLINK-3700,1 51956U 22025A   23308.59264095  .00001312  00000-0  10258-3 0  9999,2 51956  53.0552 270.4327 0001405  89.9103 270.2048 15.08034223 91936,6920.344,95.489,543.182,541.237,0.0
51956.0,STARLINK-3700,PAYLOAD,2023-11-05 04:32:19,15.0804481,0.000139,53.0553,267.7506,89.2168,270.8981,0.00016143,2.229e-05,0.0,0 STARLINK-3700,1 51956U 22025A   23309.18911080  .00002229  00000-0  16143-3 0  9995,2 51956  53.0553 267.7506 0001390  89.2168 270.8981 15.08044810 92028,6920.312,95.488,543.139,541.215,0.0
51956.0,STARLINK-3700,PAYLOAD,2023-11-06 04:23:49,15.08086702,0.0001431,53.054,263.277,106.0751,254.0397,0.0010317,0.00015837,0.0,0 STARLINK-3700,1 51956U 22025A   23310.18321674  .00015837  00000-0  10317-2 0  9996,2 51956  53.0540 263.2770 0001431 106.0751 254.0397 15.08086702 93268,6920.184,95.485,543.039,541.059,0.0
51956.0,STARLINK-3700,PAYLOAD,2023-11-06 13:56:26,15.08059974,7.06e-05,53.0551,261.4859,67.1083,292.9981,0.00025866,3.747e-05,0.0,0 STARLINK-3700,1 51956U 22025A   23310.58085872  .00003747  00000-0  25866-3 0  9990,2 51956  53.0551 261.4859 0000706  67.1083 292.9981 15.08059974 92234,6920.266,95.487,542.619,541.642,0.0
51956.0,STARLINK-3700,PAYLOAD,2023-11-07 02:39:57,15.08011528,0.0001196,53.0544,259.1006,81.554,278.5585,-0.00071767,-0.00011436,0.0,0 STARLINK-3700,1 51956U 22025A   23311.11108022 -.00011436  00000-0 -71767-3 0  9990,2 51956  53.0544 259.1006 0001196  81.5540 278.5585 15.08011528 93409,6920.414,95.49,543.107,541.451,0.0
51956.0,STARLINK-3700,PAYLOAD,2023-11-07 13:48:01,15.08004011,0.000125,53.0549,257.0137,90.932,269.1813,-0.00062098,-9.933e-05,0.0,0 STARLINK-3700,1 51956U 22025A   23311.57501356 -.00009933  00000-0 -62098-3 0  9993,2 51956  53.0549 257.0137 0001250  90.9320 269.1813 15.08004011 92382,6920.437,95.49,543.167,541.437,0.0
51956.0,STARLINK-3700,PAYLOAD,2023-11-08 02:31:30,15.0801301,9.71e-05,53.0545,254.6284,100.7468,259.3631,-0.000389,-6.334e-05,0.0,0 STARLINK-3700,1 51956U 22025A   23312.10521646 -.00006334  00000-0 -38900-3 0  9994,2 51956  53.0545 254.6284 0000971 100.7468 259.3631 15.08013010 93554,6920.409,95.49,542.946,541.602,0.0
51956.0,STARLINK-3700,PAYLOAD,2023-11-08 05:42:22,15.08030679,0.0001357,53.0545,254.0315,99.0441,261.0703,8.7503e-05,1.077e-05,0.0,0 STARLINK-3700,1 51956U 22025A   23312.23776185  .00001077  00000-0  87503-4 0  9999,2 51956  53.0545 254.0315 0001357  99.0441 261.0703 15.08030679 93575,6920.355,95.489,543.159,541.281,0.0
51956.0,STARLINK-3700,PAYLOAD,2023-11-09 02:23:04,15.08013754,0.000144,53.0546,250.1541,95.976,264.1394,0.00049716,7.459e-05,0.0,0 STARLINK-3700,1 51956U 22025A   23313.09935615  .00007459  00000-0  49716-3 0  9992,2 51956  53.0546 250.1541 0001440  95.9760 264.1394 15.08013754 93706,6920.407,95.49,543.269,541.276,0.0
51956.0,STARLINK-3700,PAYLOAD,2023-11-09 05:33:56,15.08027244,0.0001402,53.0554,249.556,87.9145,272.2005,0.00066351,0.00010058,0.0,0 STARLINK-3700,1 51956U 22025A   23313.23190204  .00010058  00000-0  66351-3 0  9998,2 51956  53.0554 249.5560 0001402  87.9145 272.2005 15.08027244 93724,6920.366,95.489,543.201,541.261,0.0
